CZ-2C R/B               
1 54039U 22132E   25339.26798000  .00052074  00000+0  78997-3 0  9995
2 54039  97.2940 335.3273 0023767  81.4335 278.9611 15.54119878175678
GSLV R/B                
1 54149U 22138AN  25339.09704089  .00006318  00000+0  55698-3 0  9991
2 54149  87.3833 198.0329 0023433 130.7823 229.5447 14.96072359169788
XRISM                   
1 57800U 23137A   25339.23384715  .00007458  00000+0  43905-3 0  9998
2 57800  30.9994 174.0031 0007683 170.0652 190.0139 15.10228509123492
ACS3                    
1 59588U 24077B   25338.80840008  .00024642  00000+0  21306-1 0  9994
2 59588  97.2747 296.1857 0077263 354.7889   5.2460 13.84865597 81046
