CCSDS_OMM_VERS = 2.0
CREATION_DATE  = 
ORIGINATOR     = 

OBJECT_NAME    = CZ-2C R/B
OBJECT_ID      = 2022-132E
CENTER_NAME    = EARTH
REF_FRAME      = TEME
TIME_SYSTEM    = UTC
MEAN_ELEMENT_THEORY = SGP/SGP4

EPOCH          = 2025-12-05T06:25:53.472000
MEAN_MOTION    = 15.54119878
ECCENTRICITY   = .00237672
INCLINATION    = 97.2940
RA_OF_ASC_NODE = 335.3273
ARG_OF_PERICENTER = 81.4335
MEAN_ANOMALY   = 278.9611

EPHEMERIS_TYPE = 0
CLASSIFICATION_TYPE = U
NORAD_CAT_ID   = 54039
ELEMENT_SET_NO = 999
REV_AT_EPOCH   = 17567
BSTAR          = .78997053E-3
MEAN_MOTION_DOT = .52074E-3
MEAN_MOTION_DDOT = 0

CCSDS_OMM_VERS = 2.0
CREATION_DATE  = 
ORIGINATOR     = 

OBJECT_NAME    = GSLV R/B
OBJECT_ID      = 2022-138AN
CENTER_NAME    = EARTH
REF_FRAME      = TEME
TIME_SYSTEM    = UTC
MEAN_ELEMENT_THEORY = SGP/SGP4

EPOCH          = 2025-12-05T02:19:44.332896
MEAN_MOTION    = 14.96072359
ECCENTRICITY   = .00234333
INCLINATION    = 87.3833
RA_OF_ASC_NODE = 198.0329
ARG_OF_PERICENTER = 130.7823
MEAN_ANOMALY   = 229.5447

EPHEMERIS_TYPE = 0
CLASSIFICATION_TYPE = U
NORAD_CAT_ID   = 54149
ELEMENT_SET_NO = 999
REV_AT_EPOCH   = 16978
BSTAR          = .5569766E-3
MEAN_MOTION_DOT = .6318E-4
MEAN_MOTION_DDOT = 0

CCSDS_OMM_VERS = 2.0
CREATION_DATE  = 
ORIGINATOR     = 

OBJECT_NAME    = XRISM
OBJECT_ID      = 2023-137A
CENTER_NAME    = EARTH
REF_FRAME      = TEME
TIME_SYSTEM    = UTC
MEAN_ELEMENT_THEORY = SGP/SGP4

EPOCH          = 2025-12-05T05:36:44.393760
MEAN_MOTION    = 15.10228509
ECCENTRICITY   = .00076839
INCLINATION    = 30.9994
RA_OF_ASC_NODE = 174.0031
ARG_OF_PERICENTER = 170.0652
MEAN_ANOMALY   = 190.0139

EPHEMERIS_TYPE = 0
CLASSIFICATION_TYPE = U
NORAD_CAT_ID   = 57800
ELEMENT_SET_NO = 999
REV_AT_EPOCH   = 12349
BSTAR          = .43904949E-3
MEAN_MOTION_DOT = .7458E-4
MEAN_MOTION_DDOT = 0

CCSDS_OMM_VERS = 2.0
CREATION_DATE  = 
ORIGINATOR     = 

OBJECT_NAME    = ACS3
OBJECT_ID      = 2024-077B
CENTER_NAME    = EARTH
REF_FRAME      = TEME
TIME_SYSTEM    = UTC
MEAN_ELEMENT_THEORY = SGP/SGP4

EPOCH          = 2025-12-04T19:24:05.766912
MEAN_MOTION    = 13.84865597
ECCENTRICITY   = .00772631
INCLINATION    = 97.2747
RA_OF_ASC_NODE = 296.1857
ARG_OF_PERICENTER = 354.7889
MEAN_ANOMALY   = 5.2460

EPHEMERIS_TYPE = 0
CLASSIFICATION_TYPE = U
NORAD_CAT_ID   = 59588
ELEMENT_SET_NO = 999
REV_AT_EPOCH   = 8104
BSTAR          = .21305614E-1
MEAN_MOTION_DOT = .24642E-3
MEAN_MOTION_DDOT = 0

